TIANMU-1 07             
1 57399U 23101A   26065.57454230  .00008352  00000+0  29795-3 0  9991
2 57399  97.2728 118.5929 0004609 142.4105 217.7458 15.29118809145964
STARLINK-31774          
1 59622U 24080X   26068.31303101 -.00000576  00000+0 -11386-4 0  9994
2 59622  43.0047  36.6914 0001499 262.6792  97.3889 15.27576945104516
